CCSDS_OMM_VERS = 2.0
CREATION_DATE  = 
ORIGINATOR     = 

OBJECT_NAME    = SL-4 R/B
OBJECT_ID      = 2014-021B
CENTER_NAME    = EARTH
REF_FRAME      = TEME
TIME_SYSTEM    = UTC
MEAN_ELEMENT_THEORY = SGP/SGP4

EPOCH          = 2025-12-22T05:45:28.964448
MEAN_MOTION    = 15.36878688
ECCENTRICITY   = .01009776
INCLINATION    = 51.6088
RA_OF_ASC_NODE = 354.4168
ARG_OF_PERICENTER = 180.4562
MEAN_ANOMALY   = 179.6345

EPHEMERIS_TYPE = 0
CLASSIFICATION_TYPE = U
NORAD_CAT_ID   = 39679
ELEMENT_SET_NO = 999
REV_AT_EPOCH   = 64435
BSTAR          = .25619252E-3
MEAN_MOTION_DOT = .10708E-3
MEAN_MOTION_DDOT = 0

CCSDS_OMM_VERS = 2.0
CREATION_DATE  = 
ORIGINATOR     = 

OBJECT_NAME    = ALOS-2
OBJECT_ID      = 2014-029A
CENTER_NAME    = EARTH
REF_FRAME      = TEME
TIME_SYSTEM    = UTC
MEAN_ELEMENT_THEORY = SGP/SGP4

EPOCH          = 2025-12-22T06:42:10.019232
MEAN_MOTION    = 14.79474307
ECCENTRICITY   = .00013866
INCLINATION    = 97.9229
RA_OF_ASC_NODE = 90.9901
ARG_OF_PERICENTER = 105.3753
MEAN_ANOMALY   = 254.7611

EPHEMERIS_TYPE = 0
CLASSIFICATION_TYPE = U
NORAD_CAT_ID   = 39766
ELEMENT_SET_NO = 999
REV_AT_EPOCH   = 62542
BSTAR          = .12959097E-3
MEAN_MOTION_DOT = .917E-5
MEAN_MOTION_DDOT = 0

CCSDS_OMM_VERS = 2.0
CREATION_DATE  = 
ORIGINATOR     = 

OBJECT_NAME    = YAOGAN-29
OBJECT_ID      = 2015-069A
CENTER_NAME    = EARTH
REF_FRAME      = TEME
TIME_SYSTEM    = UTC
MEAN_ELEMENT_THEORY = SGP/SGP4

EPOCH          = 2025-12-22T06:23:37.074912
MEAN_MOTION    = 14.82890708
ECCENTRICITY   = .00006098
INCLINATION    = 98.0206
RA_OF_ASC_NODE = 19.4685
ARG_OF_PERICENTER = 172.4418
MEAN_ANOMALY   = 187.6804

EPHEMERIS_TYPE = 0
CLASSIFICATION_TYPE = U
NORAD_CAT_ID   = 41038
ELEMENT_SET_NO = 999
REV_AT_EPOCH   = 54440
BSTAR          = -.3837311E-5
MEAN_MOTION_DOT = -.85E-6
MEAN_MOTION_DDOT = 0

CCSDS_OMM_VERS = 2.0
CREATION_DATE  = 
ORIGINATOR     = 

OBJECT_NAME    = ASTRO-H (HITOMI)
OBJECT_ID      = 2016-012A
CENTER_NAME    = EARTH
REF_FRAME      = TEME
TIME_SYSTEM    = UTC
MEAN_ELEMENT_THEORY = SGP/SGP4

EPOCH          = 2025-12-21T16:24:42.625152
MEAN_MOTION    = 15.09404617
ECCENTRICITY   = .00097299
INCLINATION    = 30.9982
RA_OF_ASC_NODE = 139.7074
ARG_OF_PERICENTER = 268.3442
MEAN_ANOMALY   = 91.6082

EPHEMERIS_TYPE = 0
CLASSIFICATION_TYPE = U
NORAD_CAT_ID   = 41337
ELEMENT_SET_NO = 999
REV_AT_EPOCH   = 54043
BSTAR          = .16406545E-3
MEAN_MOTION_DOT = .2784E-4
MEAN_MOTION_DDOT = 0

CCSDS_OMM_VERS = 2.0
CREATION_DATE  = 
ORIGINATOR     = 

OBJECT_NAME    = HXMT (HUIYAN)
OBJECT_ID      = 2017-034A
CENTER_NAME    = EARTH
REF_FRAME      = TEME
TIME_SYSTEM    = UTC
MEAN_ELEMENT_THEORY = SGP/SGP4

EPOCH          = 2025-12-22T06:38:26.170656
MEAN_MOTION    = 15.16339209
ECCENTRICITY   = .00310552
INCLINATION    = 43.0147
RA_OF_ASC_NODE = 86.7021
ARG_OF_PERICENTER = 106.0870
MEAN_ANOMALY   = 254.3400

EPHEMERIS_TYPE = 0
CLASSIFICATION_TYPE = U
NORAD_CAT_ID   = 42758
ELEMENT_SET_NO = 999
REV_AT_EPOCH   = 47078
BSTAR          = .31130972E-3
MEAN_MOTION_DOT = .5984E-4
MEAN_MOTION_DDOT = 0

CCSDS_OMM_VERS = 2.0
CREATION_DATE  = 
ORIGINATOR     = 

OBJECT_NAME    = CZ-2C R/B
OBJECT_ID      = 2018-054D
CENTER_NAME    = EARTH
REF_FRAME      = TEME
TIME_SYSTEM    = UTC
MEAN_ELEMENT_THEORY = SGP/SGP4

EPOCH          = 2025-12-21T17:38:14.674848
MEAN_MOTION    = 15.75859679
ECCENTRICITY   = .00150663
INCLINATION    = 35.1331
RA_OF_ASC_NODE = 119.8116
ARG_OF_PERICENTER = 234.1630
MEAN_ANOMALY   = 125.7704

EPHEMERIS_TYPE = 0
CLASSIFICATION_TYPE = U
NORAD_CAT_ID   = 43521
ELEMENT_SET_NO = 999
REV_AT_EPOCH   = 41647
BSTAR          = .64962912E-3
MEAN_MOTION_DOT = .106173E-2
MEAN_MOTION_DDOT = 0

CCSDS_OMM_VERS = 2.0
CREATION_DATE  = 
ORIGINATOR     = 

OBJECT_NAME    = SAOCOM 1A
OBJECT_ID      = 2018-076A
CENTER_NAME    = EARTH
REF_FRAME      = TEME
TIME_SYSTEM    = UTC
MEAN_ELEMENT_THEORY = SGP/SGP4

EPOCH          = 2025-12-22T06:12:04.419072
MEAN_MOTION    = 14.82139719
ECCENTRICITY   = .00013589
INCLINATION    = 97.8849
RA_OF_ASC_NODE = 180.5423
ARG_OF_PERICENTER = 89.4494
MEAN_ANOMALY   = 270.6875

EPHEMERIS_TYPE = 0
CLASSIFICATION_TYPE = U
NORAD_CAT_ID   = 43641
ELEMENT_SET_NO = 999
REV_AT_EPOCH   = 38989
BSTAR          = -.6271601E-5
MEAN_MOTION_DOT = -.102E-5
MEAN_MOTION_DDOT = 0

CCSDS_OMM_VERS = 2.0
CREATION_DATE  = 
ORIGINATOR     = 

OBJECT_NAME    = H-2A R/B
OBJECT_ID      = 2018-084L
CENTER_NAME    = EARTH
REF_FRAME      = TEME
TIME_SYSTEM    = UTC
MEAN_ELEMENT_THEORY = SGP/SGP4

EPOCH          = 2025-12-22T01:32:05.458848
MEAN_MOTION    = 15.37685321
ECCENTRICITY   = .00267272
INCLINATION    = 98.8765
RA_OF_ASC_NODE = 192.0776
ARG_OF_PERICENTER = 293.8764
MEAN_ANOMALY   = 65.9675

EPHEMERIS_TYPE = 0
CLASSIFICATION_TYPE = U
NORAD_CAT_ID   = 43682
ELEMENT_SET_NO = 999
REV_AT_EPOCH   = 39383
BSTAR          = .52961431E-3
MEAN_MOTION_DOT = .19754E-3
MEAN_MOTION_DDOT = 0

CCSDS_OMM_VERS = 2.0
CREATION_DATE  = 
ORIGINATOR     = 

OBJECT_NAME    = SAOCOM 1B
OBJECT_ID      = 2020-059A
CENTER_NAME    = EARTH
REF_FRAME      = TEME
TIME_SYSTEM    = UTC
MEAN_ELEMENT_THEORY = SGP/SGP4

EPOCH          = 2025-12-22T05:19:53.498208
MEAN_MOTION    = 14.82147703
ECCENTRICITY   = .00014583
INCLINATION    = 97.8833
RA_OF_ASC_NODE = 179.6058
ARG_OF_PERICENTER = 86.8887
MEAN_ANOMALY   = 273.2493

EPHEMERIS_TYPE = 0
CLASSIFICATION_TYPE = U
NORAD_CAT_ID   = 46265
ELEMENT_SET_NO = 999
REV_AT_EPOCH   = 28727
BSTAR          = .95017615E-4
MEAN_MOTION_DOT = .704E-5
MEAN_MOTION_DDOT = 0

CCSDS_OMM_VERS = 2.0
CREATION_DATE  = 
ORIGINATOR     = 

OBJECT_NAME    = CSS (TIANHE)
OBJECT_ID      = 2021-035A
CENTER_NAME    = EARTH
REF_FRAME      = TEME
TIME_SYSTEM    = UTC
MEAN_ELEMENT_THEORY = SGP/SGP4

EPOCH          = 2025-12-22T04:38:19.938912
MEAN_MOTION    = 15.59558261
ECCENTRICITY   = .00077972
INCLINATION    = 41.4687
RA_OF_ASC_NODE = 319.2988
ARG_OF_PERICENTER = 114.0639
MEAN_ANOMALY   = 246.1016

EPHEMERIS_TYPE = 0
CLASSIFICATION_TYPE = U
NORAD_CAT_ID   = 48274
ELEMENT_SET_NO = 999
REV_AT_EPOCH   = 26550
BSTAR          = .24063854E-3
MEAN_MOTION_DOT = .19415E-3
MEAN_MOTION_DDOT = 0

CCSDS_OMM_VERS = 2.0
CREATION_DATE  = 
ORIGINATOR     = 

OBJECT_NAME    = COSMOS 2550
OBJECT_ID      = 2021-056A
CENTER_NAME    = EARTH
REF_FRAME      = TEME
TIME_SYSTEM    = UTC
MEAN_ELEMENT_THEORY = SGP/SGP4

EPOCH          = 2025-12-19T21:34:23.418624
MEAN_MOTION    = 15.33838622
ECCENTRICITY   = .0008368
INCLINATION    = 67.1455
RA_OF_ASC_NODE = 282.2793
ARG_OF_PERICENTER = 269.6426
MEAN_ANOMALY   = 90.3770

EPHEMERIS_TYPE = 0
CLASSIFICATION_TYPE = U
NORAD_CAT_ID   = 48865
ELEMENT_SET_NO = 999
REV_AT_EPOCH   = 25122
BSTAR          = .8251269E-5
MEAN_MOTION_DOT = .8E-6
MEAN_MOTION_DDOT = 0

CCSDS_OMM_VERS = 2.0
CREATION_DATE  = 
ORIGINATOR     = 

OBJECT_NAME    = CZ-2C R/B
OBJECT_ID      = 2022-058K
CENTER_NAME    = EARTH
REF_FRAME      = TEME
TIME_SYSTEM    = UTC
MEAN_ELEMENT_THEORY = SGP/SGP4

EPOCH          = 2025-12-22T06:59:57.994080
MEAN_MOTION    = 15.48936870
ECCENTRICITY   = .0044825
INCLINATION    = 50.1916
RA_OF_ASC_NODE = 354.8210
ARG_OF_PERICENTER = 237.9648
MEAN_ANOMALY   = 121.6963

EPHEMERIS_TYPE = 0
CLASSIFICATION_TYPE = U
NORAD_CAT_ID   = 52794
ELEMENT_SET_NO = 999
REV_AT_EPOCH   = 19811
BSTAR          = .47318531E-3
MEAN_MOTION_DOT = .26735E-3
MEAN_MOTION_DDOT = 0

