SL-4 R/B                
1 39679U 14021B   25356.23991857  .00010708  00000+0  25619-3 0  9998
2 39679  51.6088 354.4168 0100977 180.4562 179.6345 15.36878688644352
ALOS-2                  
1 39766U 14029A   25356.27928263  .00000917  00000+0  12959-3 0  9992
2 39766  97.9229  90.9901 0001386 105.3753 254.7611 14.79474307625422
YAOGAN-29               
1 41038U 15069A   25356.26640133 -.00000085  00000+0 -38373-5 0  9996
2 41038  98.0206  19.4685 0000609 172.4418 187.6804 14.82890708544406
ASTRO-H (HITOMI)        
1 41337U 16012A   25355.68382668  .00002784  00000+0  16407-3 0  9996
2 41337  30.9982 139.7074 0009729 268.3442  91.6082 15.09404617540437
HXMT (HUIYAN)           
1 42758U 17034A   25356.27669179  .00005984  00000+0  31131-3 0  9996
2 42758  43.0147  86.7021 0031055 106.0870 254.3400 15.16339209470780
CZ-2C R/B               
1 43521U 18054D   25355.73489207  .00106173  00000+0  64963-3 0  9991
2 43521  35.1331 119.8116 0015066 234.1630 125.7704 15.75859679416477
SAOCOM 1A               
1 43641U 18076A   25356.25838448 -.00000102  00000+0 -62716-5 0  9994
2 43641  97.8849 180.5423 0001358  89.4494 270.6875 14.82139719389890
H-2A R/B                
1 43682U 18084L   25356.06395207  .00019754  00000+0  52961-3 0  9998
2 43682  98.8765 192.0776 0026727 293.8764  65.9675 15.37685321393838
SAOCOM 1B               
1 46265U 20059A   25356.22214697  .00000704  00000+0  95018-4 0  9990
2 46265  97.8833 179.6058 0001458  86.8887 273.2493 14.82147703287275
CSS (TIANHE)            
1 48274U 21035A   25356.19328633  .00019415  00000+0  24064-3 0  9990
2 48274  41.4687 319.2988 0007797 114.0639 246.1016 15.59558261265506
COSMOS 2550             
1 48865U 21056A   25353.89888216  .00000080  00000+0  82513-5 0  9994
2 48865  67.1455 282.2793 0008368 269.6426  90.3770 15.33838622251223
CZ-2C R/B               
1 52794U 22058K   25356.29164345  .00026735  00000+0  47319-3 0  9998
2 52794  50.1916 354.8210 0044825 237.9648 121.6963 15.48936870198115
